GLOBALSTAR M045 [-]     
1 25676U 99019A   23273.34636302 -.00000071  00000+0  19804-3 0  9991
2 25676  51.9964 288.9823 0000888  57.4975  45.1088 12.27016056116805
GLOBALSTAR M019 [-]     
1 25677U 99019B   23273.06720841 -.00000094  00000+0 -40887-4 0  9995
2 25677  51.9904  16.1009 0001533 125.4371  45.6565 12.13842733109105
GLOBALSTAR M044 [-]     
1 25678U 99019C   23274.19743615 -.00000080  00000+0  50384-4 0  9992
2 25678  51.9948 246.1339 0006214 276.6888  96.4384 11.90222883 96883
GLOBALSTAR M042 [-]     
1 25679U 99019D   23273.71270557 -.00000052  00000+0  38049-3 0  9992
2 25679  52.0042  16.6273 0003729  95.0053  53.2618 12.22047151108854
GLOBALSTAR M025 [-]     
1 25770U 99031A   23273.05980708 -.00000034  00000+0  10183-2 0  9999
2 25770  51.9799 169.7289 0001004 136.7425 331.4765 11.22545552411397
GLOBALSTAR M049 [-]     
1 25771U 99031B   23273.04890639 -.00000023  00000+0  14639-2 0  9990
2 25771  51.9860 173.0494 0003440  42.7044 317.4019 11.12101929 47769
GLOBALSTAR M047 [-]     
1 25772U 99031C   23273.04495803 -.00000072  00000+0 -71374-4 0  9991
2 25772  51.9813 229.8458 0016079 269.3015  90.5949 11.31915731400203
GLOBALSTAR M052 [-]     
1 25773U 99031D   23273.33638270 -.00000015  00000+0  17176-2 0  9995
2 25773  51.9859 289.8725 0002347 214.5337 242.0759 11.15045813 66522
